{"type":"FeatureCollection","features":[{"type":"Feature","id":1,"geometry":null,"properties":{"OBJECTID":1,"GEOID":"4825","BASENAME":"25","CD119":"25"}},{"type":"Feature","id":2,"geometry":null,"properties":{"OBJECTID":2,"GEOID":"0635","BASENAME":"35","CD119":"35"}},{"type":"Feature","id":3,"geometry":null,"properties":{"OBJECTID":3,"GEOID":"1809","BASENAME":"9","CD119":"09"}},{"type":"Feature","id":4,"geometry":null,"properties":{"OBJECTID":4,"GEOID":"3204","BASENAME":"4","CD119":"04"}},{"type":"Feature","id":5,"geometry":null,"properties":{"OBJECTID":5,"GEOID":"3902","BASENAME":"2","CD119":"02"}},{"type":"Feature","id":6,"geometry":null,"properties":{"OBJECTID":6,"GEOID":"3618","BASENAME":"18","CD119":"18"}},{"type":"Feature","id":7,"geometry":null,"properties":{"OBJECTID":7,"GEOID":"3410","BASENAME":"10","CD119":"10"}},{"type":"Feature","id":8,"geometry":null,"properties":{"OBJECTID":8,"GEOID":"4505","BASENAME":"5","CD119":"05"}},{"type":"Feature","id":9,"geometry":null,"properties":{"OBJECTID":9,"GEOID":"4808","BASENAME":"8","CD119":"08"}},{"type":"Feature","id":10,"geometry":null,"properties":{"OBJECTID":10,"GEOID":"0646","BASENAME":"46","CD119":"46"}},{"type":"Feature","id":11,"geometry":null,"properties":{"OBJECTID":11,"GEOID":"0409","BASENAME":"9","CD119":"09"}},{"type":"Feature","id":12,"geometry":null,"properties":{"OBJECTID":12,"GEOID":"1713","BASENAME":"13","CD119":"13"}},{"type":"Feature","id":13,"geometry":null,"properties":{"OBJECTID":13,"GEOID":"0608","BASENAME":"8","CD119":"08"}},{"type":"Feature","id":14,"geometry":null,"properties":{"OBJECTID":14,"GEOID":"5103","BASENAME":"3","CD119":"03"}},{"type":"Feature","id":15,"geometry":null,"properties":{"OBJECTID":15,"GEOID":"0642","BASENAME":"42","CD119":"42"}},{"type":"Feature","id":16,"geometry":null,"properties":{"OBJECTID":16,"GEOID":"0105","BASENAME":"5","CD119":"05"}},{"type":"Feature","id":17,"geometry":null,"properties":{"OBJECTID":17,"GEOID":"0603","BASENAME":"3","CD119":"03"}},{"type":"Feature","id":18,"geometry":null,"properties":{"OBJECTID":18,"GEOID":"1602","BASENAME":"2","CD119":"02"}},{"type":"Feature","id":19,"geometry":null,"properties":{"OBJECTID":19,"GEOID":"4706","BASENAME":"6","CD119":"06"}},{"type":"Feature","id":20,"geometry":null,"properties":{"OBJECTID":20,"GEOID":"4832","BASENAME":"32","CD119":"32"}},{"type":"Feature","id":21,"geometry":null,"properties":{"OBJECTID":21,"GEOID":"0107","BASENAME":"7","CD119":"07"}},{"type":"Feature","id":22,"geometry":null,"properties":{"OBJECTID":22,"GEOID":"0905","BASENAME":"5","CD119":"05"}},{"type":"Feature","id":23,"geometry":null,"properties":{"OBJECTID":23,"GEOID":"2702","BASENAME":"2","CD119":"02"}},{"type":"Feature","id":24,"geometry":null,"properties":{"OBJECTID":24,"GEOID":"4206","BASENAME":"6","CD119":"06"}},{"type":"Feature","id":25,"geometry":null,"properties":{"OBJECTID":25,"GEOID":"5108","BASENAME":"8","CD119":"08"}},{"type":"Feature","id":26,"geometry":null,"properties":{"OBJECTID":26,"GEOID":"0627","BASENAME":"27","CD119":"27"}},{"type":"Feature","id":27,"geometry":null,"properties":{"OBJECTID":27,"GEOID":"1709","BASENAME":"9","CD119":"09"}},{"type":"Feature","id":28,"geometry":null,"properties":{"OBJECTID":28,"GEOID":"0607","BASENAME":"7","CD119":"07"}},{"type":"Feature","id":29,"geometry":null,"properties":{"OBJECTID":29,"GEOID":"1226","BASENAME":"26","CD119":"26"}},{"type":"Feature","id":30,"geometry":null,"properties":{"OBJECTID":30,"GEOID":"3608","BASENAME":"8","CD119":"08"}},{"type":"Feature","id":31,"geometry":null,"properties":{"OBJECTID":31,"GEOID":"4816","BASENAME":"16","CD119":"16"}},{"type":"Feature","id":32,"geometry":null,"properties":{"OBJECTID":32,"GEOID":"1802","BASENAME":"2","CD119":"02"}},{"type":"Feature","id":33,"geometry":null,"properties":{"OBJECTID":33,"GEOID":"3302","BASENAME":"2","CD119":"02"}},{"type":"Feature","id":34,"geometry":null,"properties":{"OBJECTID":34,"GEOID":"0605","BASENAME":"5","CD119":"05"}},{"type":"Feature","id":35,"geometry":null,"properties":{"OBJECTID":35,"GEOID":"4831","BASENAME":"31","CD119":"31"}},{"type":"Feature","id":36,"geometry":null,"properties":{"OBJECTID":36,"GEOID":"6698","BASENAME":"Delegate District (at Large)","CD119":"98"}},{"type":"Feature","id":37,"geometry":null,"properties":{"OBJECTID":37,"GEOID":"0638","BASENAME":"38","CD119":"38"}},{"type":"Feature","id":38,"geometry":null,"properties":{"OBJECTID":38,"GEOID":"0637","BASENAME":"37","CD119":"37"}},{"type":"Feature","id":39,"geometry":null,"properties":{"OBJECTID":39,"GEOID":"0632","BASENAME":"32","CD119":"32"}},{"type":"Feature","id":40,"geometry":null,"properties":{"OBJECTID":40,"GEOID":"1711","BASENAME":"11","CD119":"11"}},{"type":"Feature","id":41,"geometry":null,"properties":{"OBJECTID":41,"GEOID":"1216","BASENAME":"16","CD119":"16"}},{"type":"Feature","id":42,"geometry":null,"properties":{"OBJECTID":42,"GEOID":"3102","BASENAME":"2","CD119":"02"}},{"type":"Feature","id":43,"geometry":null,"properties":{"OBJECTID":43,"GEOID":"3502","BASENAME":"2","CD119":"02"}},{"type":"Feature","id":44,"geometry":null,"properties":{"OBJECTID":44,"GEOID":"2708","BASENAME":"8","CD119":"08"}},{"type":"Feature","id":45,"geometry":null,"properties":{"OBJECTID":45,"GEOID":"2701","BASENAME":"1","CD119":"01"}},{"type":"Feature","id":46,"geometry":null,"properties":{"OBJECTID":46,"GEOID":"3606","BASENAME":"6","CD119":"06"}},{"type":"Feature","id":47,"geometry":null,"properties":{"OBJECTID":47,"GEOID":"0504","BASENAME":"4","CD119":"04"}},{"type":"Feature","id":48,"geometry":null,"properties":{"OBJECTID":48,"GEOID":"4821","BASENAME":"21","CD119":"21"}},{"type":"Feature","id":49,"geometry":null,"properties":{"OBJECTID":49,"GEOID":"4835","BASENAME":"35","CD119":"35"}},{"type":"Feature","id":50,"geometry":null,"properties":{"OBJECTID":50,"GEOID":"1301","BASENAME":"1","CD119":"01"}},{"type":"Feature","id":51,"geometry":null,"properties":{"OBJECTID":51,"GEOID":"3406","BASENAME":"6","CD119":"06"}},{"type":"Feature","id":52,"geometry":null,"properties":{"OBJECTID":52,"GEOID":"3714","BASENAME":"14","CD119":"14"}},{"type":"Feature","id":53,"geometry":null,"properties":{"OBJECTID":53,"GEOID":"4216","BASENAME":"16","CD119":"16"}},{"type":"Feature","id":54,"geometry":null,"properties":{"OBJECTID":54,"GEOID":"4701","BASENAME":"1","CD119":"01"}},{"type":"Feature","id":55,"geometry":null,"properties":{"OBJECTID":55,"GEOID":"4826","BASENAME":"26","CD119":"26"}},{"type":"Feature","id":56,"geometry":null,"properties":{"OBJECTID":56,"GEOID":"5401","BASENAME":"1","CD119":"01"}},{"type":"Feature","id":57,"geometry":null,"properties":{"OBJECTID":57,"GEOID":"5600","BASENAME":"Congressional District (at Large)","CD119":"00"}},{"type":"Feature","id":58,"geometry":null,"properties":{"OBJECTID":58,"GEOID":"1211","BASENAME":"11","CD119":"11"}},{"type":"Feature","id":59,"geometry":null,"properties":{"OBJECTID":59,"GEOID":"4820","BASENAME":"20","CD119":"20"}},{"type":"Feature","id":60,"geometry":null,"properties":{"OBJECTID":60,"GEOID":"0102","BASENAME":"2","CD119":"02"}},{"type":"Feature","id":61,"geometry":null,"properties":{"OBJECTID":61,"GEOID":"0622","BASENAME":"22","CD119":"22"}},{"type":"Feature","id":62,"geometry":null,"properties":{"OBJECTID":62,"GEOID":"0804","BASENAME":"4","CD119":"04"}},{"type":"Feature","id":63,"geometry":null,"properties":{"OBJECTID":63,"GEOID":"3101","BASENAME":"1","CD119":"01"}},{"type":"Feature","id":64,"geometry":null,"properties":{"OBJECTID":64,"GEOID":"1215","BASENAME":"15","CD119":"15"}},{"type":"Feature","id":65,"geometry":null,"properties":{"OBJECTID":65,"GEOID":"1217","BASENAME":"17","CD119":"17"}},{"type":"Feature","id":66,"geometry":null,"properties":{"OBJECTID":66,"GEOID":"1206","BASENAME":"6","CD119":"06"}},{"type":"Feature","id":67,"geometry":null,"properties":{"OBJECTID":67,"GEOID":"1210","BASENAME":"10","CD119":"10"}},{"type":"Feature","id":68,"geometry":null,"properties":{"OBJECTID":68,"GEOID":"1803","BASENAME":"3","CD119":"03"}},{"type":"Feature","id":69,"geometry":null,"properties":{"OBJECTID":69,"GEOID":"2103","BASENAME":"3","CD119":"03"}},{"type":"Feature","id":70,"geometry":null,"properties":{"OBJECTID":70,"GEOID":"2105","BASENAME":"5","CD119":"05"}},{"type":"Feature","id":71,"geometry":null,"properties":{"OBJECTID":71,"GEOID":"2104","BASENAME":"4","CD119":"04"}},{"type":"Feature","id":72,"geometry":null,"properties":{"OBJECTID":72,"GEOID":"2102","BASENAME":"2","CD119":"02"}},{"type":"Feature","id":73,"geometry":null,"properties":{"OBJECTID":73,"GEOID":"2403","BASENAME":"3","CD119":"03"}},{"type":"Feature","id":74,"geometry":null,"properties":{"OBJECTID":74,"GEOID":"2406","BASENAME":"6","CD119":"06"}},{"type":"Feature","id":75,"geometry":null,"properties":{"OBJECTID":75,"GEOID":"2904","BASENAME":"4","CD119":"04"}},{"type":"Feature","id":76,"geometry":null,"properties":{"OBJECTID":76,"GEOID":"3001","BASENAME":"1","CD119":"01"}},{"type":"Feature","id":77,"geometry":null,"properties":{"OBJECTID":77,"GEOID":"3202","BASENAME":"2","CD119":"02"}},{"type":"Feature","id":78,"geometry":null,"properties":{"OBJECTID":78,"GEOID":"3409","BASENAME":"9","CD119":"09"}},{"type":"Feature","id":79,"geometry":null,"properties":{"OBJECTID":79,"GEOID":"3401","BASENAME":"1","CD119":"01"}},{"type":"Feature","id":80,"geometry":null,"properties":{"OBJECTID":80,"GEOID":"3404","BASENAME":"4","CD119":"04"}},{"type":"Feature","id":81,"geometry":null,"properties":{"OBJECTID":81,"GEOID":"4101","BASENAME":"1","CD119":"01"}},{"type":"Feature","id":82,"geometry":null,"properties":{"OBJECTID":82,"GEOID":"4208","BASENAME":"8","CD119":"08"}},{"type":"Feature","id":83,"geometry":null,"properties":{"OBJECTID":83,"GEOID":"4204","BASENAME":"4","CD119":"04"}},{"type":"Feature","id":84,"geometry":null,"properties":{"OBJECTID":84,"GEOID":"4207","BASENAME":"7","CD119":"07"}},{"type":"Feature","id":85,"geometry":null,"properties":{"OBJECTID":85,"GEOID":"5101","BASENAME":"1","CD119":"01"}},{"type":"Feature","id":86,"geometry":null,"properties":{"OBJECTID":86,"GEOID":"5105","BASENAME":"5","CD119":"05"}},{"type":"Feature","id":87,"geometry":null,"properties":{"OBJECTID":87,"GEOID":"5107","BASENAME":"7","CD119":"07"}},{"type":"Feature","id":88,"geometry":null,"properties":{"OBJECTID":88,"GEOID":"1209","BASENAME":"9","CD119":"09"}},{"type":"Feature","id":89,"geometry":null,"properties":{"OBJECTID":89,"GEOID":"1501","BASENAME":"1","CD119":"01"}},{"type":"Feature","id":90,"geometry":null,"properties":{"OBJECTID":90,"GEOID":"3709","BASENAME":"9","CD119":"09"}},{"type":"Feature","id":91,"geometry":null,"properties":{"OBJECTID":91,"GEOID":"0625","BASENAME":"25","CD119":"25"}},{"type":"Feature","id":92,"geometry":null,"properties":{"OBJECTID":92,"GEOID":"0643","BASENAME":"43","CD119":"43"}},{"type":"Feature","id":93,"geometry":null,"properties":{"OBJECTID":93,"GEOID":"0803","BASENAME":"3","CD119":"03"}},{"type":"Feature","id":94,"geometry":null,"properties":{"OBJECTID":94,"GEOID":"0808","BASENAME":"8","CD119":"08"}},{"type":"Feature","id":95,"geometry":null,"properties":{"OBJECTID":95,"GEOID":"0807","BASENAME":"7","CD119":"07"}},{"type":"Feature","id":96,"geometry":null,"properties":{"OBJECTID":96,"GEOID":"1203","BASENAME":"3","CD119":"03"}},{"type":"Feature","id":97,"geometry":null,"properties":{"OBJECTID":97,"GEOID":"1205","BASENAME":"5","CD119":"05"}},{"type":"Feature","id":98,"geometry":null,"properties":{"OBJECTID":98,"GEOID":"3610","BASENAME":"10","CD119":"10"}},{"type":"Feature","id":99,"geometry":null,"properties":{"OBJECTID":99,"GEOID":"3620","BASENAME":"20","CD119":"20"}},{"type":"Feature","id":100,"geometry":null,"properties":{"OBJECTID":100,"GEOID":"3701","BASENAME":"1","CD119":"01"}},{"type":"Feature","id":101,"geometry":null,"properties":{"OBJECTID":101,"GEOID":"3708","BASENAME":"8","CD119":"08"}},{"type":"Feature","id":102,"geometry":null,"properties":{"OBJECTID":102,"GEOID":"5508","BASENAME":"8","CD119":"08"}},{"type":"Feature","id":103,"geometry":null,"properties":{"OBJECTID":103,"GEOID":"5505","BASENAME":"5","CD119":"05"}},{"type":"Feature","id":104,"geometry":null,"properties":{"OBJECTID":104,"GEOID":"0200","BASENAME":"Congressional District (at Large)","CD119":"00"}},{"type":"Feature","id":105,"geometry":null,"properties":{"OBJECTID":105,"GEOID":"2509","BASENAME":"9","CD119":"09"}},{"type":"Feature","id":106,"geometry":null,"properties":{"OBJECTID":106,"GEOID":"3913","BASENAME":"13","CD119":"13"}},{"type":"Feature","id":107,"geometry":null,"properties":{"OBJECTID":107,"GEOID":"3912","BASENAME":"12","CD119":"12"}},{"type":"Feature","id":108,"geometry":null,"properties":{"OBJECTID":108,"GEOID":"3910","BASENAME":"10","CD119":"10"}},{"type":"Feature","id":109,"geometry":null,"properties":{"OBJECTID":109,"GEOID":"3911","BASENAME":"11","CD119":"11"}},{"type":"Feature","id":110,"geometry":null,"properties":{"OBJECTID":110,"GEOID":"4703","BASENAME":"3","CD119":"03"}},{"type":"Feature","id":111,"geometry":null,"properties":{"OBJECTID":111,"GEOID":"4705","BASENAME":"5","CD119":"05"}},{"type":"Feature","id":112,"geometry":null,"properties":{"OBJECTID":112,"GEOID":"2606","BASENAME":"6","CD119":"06"}},{"type":"Feature","id":113,"geometry":null,"properties":{"OBJECTID":113,"GEOID":"2602","BASENAME":"2","CD119":"02"}},{"type":"Feature","id":114,"geometry":null,"properties":{"OBJECTID":114,"GEOID":"5303","BASENAME":"3","CD119":"03"}},{"type":"Feature","id":115,"geometry":null,"properties":{"OBJECTID":115,"GEOID":"5308","BASENAME":"8","CD119":"08"}},{"type":"Feature","id":116,"geometry":null,"properties":{"OBJECTID":116,"GEOID":"5305","BASENAME":"5","CD119":"05"}},{"type":"Feature","id":117,"geometry":null,"properties":{"OBJECTID":117,"GEOID":"2202","BASENAME":"2","CD119":"02"}},{"type":"Feature","id":118,"geometry":null,"properties":{"OBJECTID":118,"GEOID":"2205","BASENAME":"5","CD119":"05"}},{"type":"Feature","id":119,"geometry":null,"properties":{"OBJECTID":119,"GEOID":"0604","BASENAME":"4","CD119":"04"}},{"type":"Feature","id":120,"geometry":null,"properties":{"OBJECTID":120,"GEOID":"0502","BASENAME":"2","CD119":"02"}},{"type":"Feature","id":121,"geometry":null,"properties":{"OBJECTID":121,"GEOID":"0633","BASENAME":"33","CD119":"33"}},{"type":"Feature","id":122,"geometry":null,"properties":{"OBJECTID":122,"GEOID":"2405","BASENAME":"5","CD119":"05"}},{"type":"Feature","id":123,"geometry":null,"properties":{"OBJECTID":123,"GEOID":"3301","BASENAME":"1","CD119":"01"}},{"type":"Feature","id":124,"geometry":null,"properties":{"OBJECTID":124,"GEOID":"4217","BASENAME":"17","CD119":"17"}},{"type":"Feature","id":125,"geometry":null,"properties":{"OBJECTID":125,"GEOID":"0601","BASENAME":"1","CD119":"01"}},{"type":"Feature","id":126,"geometry":null,"properties":{"OBJECTID":126,"GEOID":"2204","BASENAME":"4","CD119":"04"}},{"type":"Feature","id":127,"geometry":null,"properties":{"OBJECTID":127,"GEOID":"0651","BASENAME":"51","CD119":"51"}},{"type":"Feature","id":128,"geometry":null,"properties":{"OBJECTID":128,"GEOID":"1715","BASENAME":"15","CD119":"15"}},{"type":"Feature","id":129,"geometry":null,"properties":{"OBJECTID":129,"GEOID":"3408","BASENAME":"8","CD119":"08"}},{"type":"Feature","id":130,"geometry":null,"properties":{"OBJECTID":130,"GEOID":"4600","BASENAME":"Congressional District (at Large)","CD119":"00"}},{"type":"Feature","id":131,"geometry":null,"properties":{"OBJECTID":131,"GEOID":"1806","BASENAME":"6","CD119":"06"}},{"type":"Feature","id":132,"geometry":null,"properties":{"OBJECTID":132,"GEOID":"2502","BASENAME":"2","CD119":"02"}},{"type":"Feature","id":133,"geometry":null,"properties":{"OBJECTID":133,"GEOID":"3907","BASENAME":"7","CD119":"07"}},{"type":"Feature","id":134,"geometry":null,"properties":{"OBJECTID":134,"GEOID":"4209","BASENAME":"9","CD119":"09"}},{"type":"Feature","id":135,"geometry":null,"properties":{"OBJECTID":135,"GEOID":"5104","BASENAME":"4","CD119":"04"}},{"type":"Feature","id":136,"geometry":null,"properties":{"OBJECTID":136,"GEOID":"5111","BASENAME":"11","CD119":"11"}},{"type":"Feature","id":137,"geometry":null,"properties":{"OBJECTID":137,"GEOID":"4813","BASENAME":"13","CD119":"13"}},{"type":"Feature","id":138,"geometry":null,"properties":{"OBJECTID":138,"GEOID":"4833","BASENAME":"33","CD119":"33"}},{"type":"Feature","id":139,"geometry":null,"properties":{"OBJECTID":139,"GEOID":"4830","BASENAME":"30","CD119":"30"}},{"type":"Feature","id":140,"geometry":null,"properties":{"OBJECTID":140,"GEOID":"4812","BASENAME":"12","CD119":"12"}},{"type":"Feature","id":141,"geometry":null,"properties":{"OBJECTID":141,"GEOID":"4824","BASENAME":"24","CD119":"24"}},{"type":"Feature","id":142,"geometry":null,"properties":{"OBJECTID":142,"GEOID":"4806","BASENAME":"6","CD119":"06"}},{"type":"Feature","id":143,"geometry":null,"properties":{"OBJECTID":143,"GEOID":"4817","BASENAME":"17","CD119":"17"}},{"type":"Feature","id":144,"geometry":null,"properties":{"OBJECTID":144,"GEOID":"4819","BASENAME":"19","CD119":"19"}},{"type":"Feature","id":145,"geometry":null,"properties":{"OBJECTID":145,"GEOID":"4002","BASENAME":"2","CD119":"02"}},{"type":"Feature","id":146,"geometry":null,"properties":{"OBJECTID":146,"GEOID":"0406","BASENAME":"6","CD119":"06"}},{"type":"Feature","id":147,"geometry":null,"properties":{"OBJECTID":147,"GEOID":"3503","BASENAME":"3","CD119":"03"}},{"type":"Feature","id":148,"geometry":null,"properties":{"OBJECTID":148,"GEOID":"1714","BASENAME":"14","CD119":"14"}},{"type":"Feature","id":149,"geometry":null,"properties":{"OBJECTID":149,"GEOID":"1702","BASENAME":"2","CD119":"02"}},{"type":"Feature","id":150,"geometry":null,"properties":{"OBJECTID":150,"GEOID":"1901","BASENAME":"1","CD119":"01"}},{"type":"Feature","id":151,"geometry":null,"properties":{"OBJECTID":151,"GEOID":"1902","BASENAME":"2","CD119":"02"}},{"type":"Feature","id":152,"geometry":null,"properties":{"OBJECTID":152,"GEOID":"1302","BASENAME":"2","CD119":"02"}},{"type":"Feature","id":153,"geometry":null,"properties":{"OBJECTID":153,"GEOID":"1307","BASENAME":"7","CD119":"07"}},{"type":"Feature","id":154,"geometry":null,"properties":{"OBJECTID":154,"GEOID":"1309","BASENAME":"9","CD119":"09"}},{"type":"Feature","id":155,"geometry":null,"properties":{"OBJECTID":155,"GEOID":"1223","BASENAME":"23","CD119":"23"}},{"type":"Feature","id":156,"geometry":null,"properties":{"OBJECTID":156,"GEOID":"3601","BASENAME":"1","CD119":"01"}},{"type":"Feature","id":157,"geometry":null,"properties":{"OBJECTID":157,"GEOID":"2706","BASENAME":"6","CD119":"06"}},{"type":"Feature","id":158,"geometry":null,"properties":{"OBJECTID":158,"GEOID":"3712","BASENAME":"12","CD119":"12"}},{"type":"Feature","id":159,"geometry":null,"properties":{"OBJECTID":159,"GEOID":"1708","BASENAME":"8","CD119":"08"}},{"type":"Feature","id":160,"geometry":null,"properties":{"OBJECTID":160,"GEOID":"4005","BASENAME":"5","CD119":"05"}},{"type":"Feature","id":161,"geometry":null,"properties":{"OBJECTID":161,"GEOID":"0902","BASENAME":"2","CD119":"02"}},{"type":"Feature","id":162,"geometry":null,"properties":{"OBJECTID":162,"GEOID":"2404","BASENAME":"4","CD119":"04"}},{"type":"Feature","id":163,"geometry":null,"properties":{"OBJECTID":163,"GEOID":"3705","BASENAME":"5","CD119":"05"}},{"type":"Feature","id":164,"geometry":null,"properties":{"OBJECTID":164,"GEOID":"1904","BASENAME":"4","CD119":"04"}},{"type":"Feature","id":165,"geometry":null,"properties":{"OBJECTID":165,"GEOID":"0402","BASENAME":"2","CD119":"02"}},{"type":"Feature","id":166,"geometry":null,"properties":{"OBJECTID":166,"GEOID":"1312","BASENAME":"12","CD119":"12"}},{"type":"Feature","id":167,"geometry":null,"properties":{"OBJECTID":167,"GEOID":"0613","BASENAME":"13","CD119":"13"}},{"type":"Feature","id":168,"geometry":null,"properties":{"OBJECTID":168,"GEOID":"2903","BASENAME":"3","CD119":"03"}},{"type":"Feature","id":169,"geometry":null,"properties":{"OBJECTID":169,"GEOID":"4003","BASENAME":"3","CD119":"03"}},{"type":"Feature","id":170,"geometry":null,"properties":{"OBJECTID":170,"GEOID":"5402","BASENAME":"2","CD119":"02"}},{"type":"Feature","id":171,"geometry":null,"properties":{"OBJECTID":171,"GEOID":"0104","BASENAME":"4","CD119":"04"}},{"type":"Feature","id":172,"geometry":null,"properties":{"OBJECTID":172,"GEOID":"1213","BASENAME":"13","CD119":"13"}},{"type":"Feature","id":173,"geometry":null,"properties":{"OBJECTID":173,"GEOID":"0103","BASENAME":"3","CD119":"03"}},{"type":"Feature","id":174,"geometry":null,"properties":{"OBJECTID":174,"GEOID":"2604","BASENAME":"4","CD119":"04"}},{"type":"Feature","id":175,"geometry":null,"properties":{"OBJECTID":175,"GEOID":"5000","BASENAME":"Congressional District (at Large)","CD119":"00"}},{"type":"Feature","id":176,"geometry":null,"properties":{"OBJECTID":176,"GEOID":"0801","BASENAME":"1","CD119":"01"}},{"type":"Feature","id":177,"geometry":null,"properties":{"OBJECTID":177,"GEOID":"1201","BASENAME":"1","CD119":"01"}},{"type":"Feature","id":178,"geometry":null,"properties":{"OBJECTID":178,"GEOID":"2101","BASENAME":"1","CD119":"01"}},{"type":"Feature","id":179,"geometry":null,"properties":{"OBJECTID":179,"GEOID":"2401","BASENAME":"1","CD119":"01"}},{"type":"Feature","id":180,"geometry":null,"properties":{"OBJECTID":180,"GEOID":"3103","BASENAME":"3","CD119":"03"}},{"type":"Feature","id":181,"geometry":null,"properties":{"OBJECTID":181,"GEOID":"4210","BASENAME":"10","CD119":"10"}},{"type":"Feature","id":182,"geometry":null,"properties":{"OBJECTID":182,"GEOID":"5110","BASENAME":"10","CD119":"10"}},{"type":"Feature","id":183,"geometry":null,"properties":{"OBJECTID":183,"GEOID":"4803","BASENAME":"3","CD119":"03"}},{"type":"Feature","id":184,"geometry":null,"properties":{"OBJECTID":184,"GEOID":"4001","BASENAME":"1","CD119":"01"}},{"type":"Feature","id":185,"geometry":null,"properties":{"OBJECTID":185,"GEOID":"1903","BASENAME":"3","CD119":"03"}},{"type":"Feature","id":186,"geometry":null,"properties":{"OBJECTID":186,"GEOID":"1314","BASENAME":"14","CD119":"14"}},{"type":"Feature","id":187,"geometry":null,"properties":{"OBJECTID":187,"GEOID":"5502","BASENAME":"2","CD119":"02"}},{"type":"Feature","id":188,"geometry":null,"properties":{"OBJECTID":188,"GEOID":"2508","BASENAME":"8","CD119":"08"}},{"type":"Feature","id":189,"geometry":null,"properties":{"OBJECTID":189,"GEOID":"3909","BASENAME":"9","CD119":"09"}},{"type":"Feature","id":190,"geometry":null,"properties":{"OBJECTID":190,"GEOID":"4702","BASENAME":"2","CD119":"02"}},{"type":"Feature","id":191,"geometry":null,"properties":{"OBJECTID":191,"GEOID":"1198","BASENAME":"Delegate District (at Large)","CD119":"98"}},{"type":"Feature","id":192,"geometry":null,"properties":{"OBJECTID":192,"GEOID":"3603","BASENAME":"3","CD119":"03"}},{"type":"Feature","id":193,"geometry":null,"properties":{"OBJECTID":193,"GEOID":"3704","BASENAME":"4","CD119":"04"}},{"type":"Feature","id":194,"geometry":null,"properties":{"OBJECTID":194,"GEOID":"3201","BASENAME":"1","CD119":"01"}},{"type":"Feature","id":195,"geometry":null,"properties":{"OBJECTID":195,"GEOID":"4212","BASENAME":"12","CD119":"12"}},{"type":"Feature","id":196,"geometry":null,"properties":{"OBJECTID":196,"GEOID":"4809","BASENAME":"9","CD119":"09"}},{"type":"Feature","id":197,"geometry":null,"properties":{"OBJECTID":197,"GEOID":"0618","BASENAME":"18","CD119":"18"}},{"type":"Feature","id":198,"geometry":null,"properties":{"OBJECTID":198,"GEOID":"1716","BASENAME":"16","CD119":"16"}},{"type":"Feature","id":199,"geometry":null,"properties":{"OBJECTID":199,"GEOID":"1308","BASENAME":"8","CD119":"08"}},{"type":"Feature","id":200,"geometry":null,"properties":{"OBJECTID":200,"GEOID":"0408","BASENAME":"8","CD119":"08"}},{"type":"Feature","id":201,"geometry":null,"properties":{"OBJECTID":201,"GEOID":"1306","BASENAME":"6","CD119":"06"}},{"type":"Feature","id":202,"geometry":null,"properties":{"OBJECTID":202,"GEOID":"3501","BASENAME":"1","CD119":"01"}},{"type":"Feature","id":203,"geometry":null,"properties":{"OBJECTID":203,"GEOID":"0629","BASENAME":"29","CD119":"29"}},{"type":"Feature","id":204,"geometry":null,"properties":{"OBJECTID":204,"GEOID":"1706","BASENAME":"6","CD119":"06"}},{"type":"Feature","id":205,"geometry":null,"properties":{"OBJECTID":205,"GEOID":"2703","BASENAME":"3","CD119":"03"}},{"type":"Feature","id":206,"geometry":null,"properties":{"OBJECTID":206,"GEOID":"2613","BASENAME":"13","CD119":"13"}},{"type":"Feature","id":207,"geometry":null,"properties":{"OBJECTID":207,"GEOID":"0650","BASENAME":"50","CD119":"50"}},{"type":"Feature","id":208,"geometry":null,"properties":{"OBJECTID":208,"GEOID":"0652","BASENAME":"52","CD119":"52"}},{"type":"Feature","id":209,"geometry":null,"properties":{"OBJECTID":209,"GEOID":"3607","BASENAME":"7","CD119":"07"}},{"type":"Feature","id":210,"geometry":null,"properties":{"OBJECTID":210,"GEOID":"0501","BASENAME":"1","CD119":"01"}},{"type":"Feature","id":211,"geometry":null,"properties":{"OBJECTID":211,"GEOID":"3703","BASENAME":"3","CD119":"03"}},{"type":"Feature","id":212,"geometry":null,"properties":{"OBJECTID":212,"GEOID":"0609","BASENAME":"9","CD119":"09"}},{"type":"Feature","id":213,"geometry":null,"properties":{"OBJECTID":213,"GEOID":"0602","BASENAME":"2","CD119":"02"}},{"type":"Feature","id":214,"geometry":null,"properties":{"OBJECTID":214,"GEOID":"1717","BASENAME":"17","CD119":"17"}},{"type":"Feature","id":215,"geometry":null,"properties":{"OBJECTID":215,"GEOID":"3002","BASENAME":"2","CD119":"02"}},{"type":"Feature","id":216,"geometry":null,"properties":{"OBJECTID":216,"GEOID":"2506","BASENAME":"6","CD119":"06"}},{"type":"Feature","id":217,"geometry":null,"properties":{"OBJECTID":217,"GEOID":"4203","BASENAME":"3","CD119":"03"}},{"type":"Feature","id":218,"geometry":null,"properties":{"OBJECTID":218,"GEOID":"0645","BASENAME":"45","CD119":"45"}},{"type":"Feature","id":219,"geometry":null,"properties":{"OBJECTID":219,"GEOID":"0614","BASENAME":"14","CD119":"14"}},{"type":"Feature","id":220,"geometry":null,"properties":{"OBJECTID":220,"GEOID":"1310","BASENAME":"10","CD119":"10"}},{"type":"Feature","id":221,"geometry":null,"properties":{"OBJECTID":221,"GEOID":"1712","BASENAME":"12","CD119":"12"}},{"type":"Feature","id":222,"geometry":null,"properties":{"OBJECTID":222,"GEOID":"0620","BASENAME":"20","CD119":"20"}},{"type":"Feature","id":223,"geometry":null,"properties":{"OBJECTID":223,"GEOID":"4804","BASENAME":"4","CD119":"04"}},{"type":"Feature","id":224,"geometry":null,"properties":{"OBJECTID":224,"GEOID":"4707","BASENAME":"7","CD119":"07"}},{"type":"Feature","id":225,"geometry":null,"properties":{"OBJECTID":225,"GEOID":"0634","BASENAME":"34","CD119":"34"}},{"type":"Feature","id":226,"geometry":null,"properties":{"OBJECTID":226,"GEOID":"0623","BASENAME":"23","CD119":"23"}},{"type":"Feature","id":227,"geometry":null,"properties":{"OBJECTID":227,"GEOID":"0611","BASENAME":"11","CD119":"11"}},{"type":"Feature","id":228,"geometry":null,"properties":{"OBJECTID":228,"GEOID":"3908","BASENAME":"8","CD119":"08"}},{"type":"Feature","id":229,"geometry":null,"properties":{"OBJECTID":229,"GEOID":"5301","BASENAME":"1","CD119":"01"}},{"type":"Feature","id":230,"geometry":null,"properties":{"OBJECTID":230,"GEOID":"2801","BASENAME":"1","CD119":"01"}},{"type":"Feature","id":231,"geometry":null,"properties":{"OBJECTID":231,"GEOID":"2503","BASENAME":"3","CD119":"03"}},{"type":"Feature","id":232,"geometry":null,"properties":{"OBJECTID":232,"GEOID":"3405","BASENAME":"5","CD119":"05"}},{"type":"Feature","id":233,"geometry":null,"properties":{"OBJECTID":233,"GEOID":"5307","BASENAME":"7","CD119":"07"}},{"type":"Feature","id":234,"geometry":null,"properties":{"OBJECTID":234,"GEOID":"0606","BASENAME":"6","CD119":"06"}},{"type":"Feature","id":235,"geometry":null,"properties":{"OBJECTID":235,"GEOID":"4106","BASENAME":"6","CD119":"06"}},{"type":"Feature","id":236,"geometry":null,"properties":{"OBJECTID":236,"GEOID":"4901","BASENAME":"1","CD119":"01"}},{"type":"Feature","id":237,"geometry":null,"properties":{"OBJECTID":237,"GEOID":"2610","BASENAME":"10","CD119":"10"}},{"type":"Feature","id":238,"geometry":null,"properties":{"OBJECTID":238,"GEOID":"0641","BASENAME":"41","CD119":"41"}},{"type":"Feature","id":239,"geometry":null,"properties":{"OBJECTID":239,"GEOID":"5501","BASENAME":"1","CD119":"01"}},{"type":"Feature","id":240,"geometry":null,"properties":{"OBJECTID":240,"GEOID":"1208","BASENAME":"8","CD119":"08"}},{"type":"Feature","id":241,"geometry":null,"properties":{"OBJECTID":241,"GEOID":"4214","BASENAME":"14","CD119":"14"}},{"type":"Feature","id":242,"geometry":null,"properties":{"OBJECTID":242,"GEOID":"4802","BASENAME":"2","CD119":"02"}},{"type":"Feature","id":243,"geometry":null,"properties":{"OBJECTID":243,"GEOID":"3617","BASENAME":"17","CD119":"17"}},{"type":"Feature","id":244,"geometry":null,"properties":{"OBJECTID":244,"GEOID":"4709","BASENAME":"9","CD119":"09"}},{"type":"Feature","id":245,"geometry":null,"properties":{"OBJECTID":245,"GEOID":"1207","BASENAME":"7","CD119":"07"}},{"type":"Feature","id":246,"geometry":null,"properties":{"OBJECTID":246,"GEOID":"1801","BASENAME":"1","CD119":"01"}},{"type":"Feature","id":247,"geometry":null,"properties":{"OBJECTID":247,"GEOID":"1805","BASENAME":"5","CD119":"05"}},{"type":"Feature","id":248,"geometry":null,"properties":{"OBJECTID":248,"GEOID":"2302","BASENAME":"2","CD119":"02"}},{"type":"Feature","id":249,"geometry":null,"properties":{"OBJECTID":249,"GEOID":"2408","BASENAME":"8","CD119":"08"}},{"type":"Feature","id":250,"geometry":null,"properties":{"OBJECTID":250,"GEOID":"2802","BASENAME":"2","CD119":"02"}},{"type":"Feature","id":251,"geometry":null,"properties":{"OBJECTID":251,"GEOID":"2907","BASENAME":"7","CD119":"07"}},{"type":"Feature","id":252,"geometry":null,"properties":{"OBJECTID":252,"GEOID":"3403","BASENAME":"3","CD119":"03"}},{"type":"Feature","id":253,"geometry":null,"properties":{"OBJECTID":253,"GEOID":"3412","BASENAME":"12","CD119":"12"}},{"type":"Feature","id":254,"geometry":null,"properties":{"OBJECTID":254,"GEOID":"3411","BASENAME":"11","CD119":"11"}},{"type":"Feature","id":255,"geometry":null,"properties":{"OBJECTID":255,"GEOID":"4102","BASENAME":"2","CD119":"02"}},{"type":"Feature","id":256,"geometry":null,"properties":{"OBJECTID":256,"GEOID":"4215","BASENAME":"15","CD119":"15"}},{"type":"Feature","id":257,"geometry":null,"properties":{"OBJECTID":257,"GEOID":"5109","BASENAME":"9","CD119":"09"}},{"type":"Feature","id":258,"geometry":null,"properties":{"OBJECTID":258,"GEOID":"5106","BASENAME":"6","CD119":"06"}},{"type":"Feature","id":259,"geometry":null,"properties":{"OBJECTID":259,"GEOID":"5102","BASENAME":"2","CD119":"02"}},{"type":"Feature","id":260,"geometry":null,"properties":{"OBJECTID":260,"GEOID":"2705","BASENAME":"5","CD119":"05"}},{"type":"Feature","id":261,"geometry":null,"properties":{"OBJECTID":261,"GEOID":"2704","BASENAME":"4","CD119":"04"}},{"type":"Feature","id":262,"geometry":null,"properties":{"OBJECTID":262,"GEOID":"4805","BASENAME":"5","CD119":"05"}},{"type":"Feature","id":263,"geometry":null,"properties":{"OBJECTID":263,"GEOID":"4838","BASENAME":"38","CD119":"38"}},{"type":"Feature","id":264,"geometry":null,"properties":{"OBJECTID":264,"GEOID":"4815","BASENAME":"15","CD119":"15"}},{"type":"Feature","id":265,"geometry":null,"properties":{"OBJECTID":265,"GEOID":"4822","BASENAME":"22","CD119":"22"}},{"type":"Feature","id":266,"geometry":null,"properties":{"OBJECTID":266,"GEOID":"0401","BASENAME":"1","CD119":"01"}},{"type":"Feature","id":267,"geometry":null,"properties":{"OBJECTID":267,"GEOID":"1703","BASENAME":"3","CD119":"03"}},{"type":"Feature","id":268,"geometry":null,"properties":{"OBJECTID":268,"GEOID":"1710","BASENAME":"10","CD119":"10"}},{"type":"Feature","id":269,"geometry":null,"properties":{"OBJECTID":269,"GEOID":"1311","BASENAME":"11","CD119":"11"}},{"type":"Feature","id":270,"geometry":null,"properties":{"OBJECTID":270,"GEOID":"1304","BASENAME":"4","CD119":"04"}},{"type":"Feature","id":271,"geometry":null,"properties":{"OBJECTID":271,"GEOID":"3623","BASENAME":"23","CD119":"23"}},{"type":"Feature","id":272,"geometry":null,"properties":{"OBJECTID":272,"GEOID":"2203","BASENAME":"3","CD119":"03"}},{"type":"Feature","id":273,"geometry":null,"properties":{"OBJECTID":273,"GEOID":"2603","BASENAME":"3","CD119":"03"}},{"type":"Feature","id":274,"geometry":null,"properties":{"OBJECTID":274,"GEOID":"0616","BASENAME":"16","CD119":"16"}},{"type":"Feature","id":275,"geometry":null,"properties":{"OBJECTID":275,"GEOID":"3605","BASENAME":"5","CD119":"05"}},{"type":"Feature","id":276,"geometry":null,"properties":{"OBJECTID":276,"GEOID":"3800","BASENAME":"Congressional District (at Large)","CD119":"00"}},{"type":"Feature","id":277,"geometry":null,"properties":{"OBJECTID":277,"GEOID":"4402","BASENAME":"2","CD119":"02"}},{"type":"Feature","id":278,"geometry":null,"properties":{"OBJECTID":278,"GEOID":"4004","BASENAME":"4","CD119":"04"}},{"type":"Feature","id":279,"geometry":null,"properties":{"OBJECTID":279,"GEOID":"1228","BASENAME":"28","CD119":"28"}},{"type":"Feature","id":280,"geometry":null,"properties":{"OBJECTID":280,"GEOID":"4104","BASENAME":"4","CD119":"04"}},{"type":"Feature","id":281,"geometry":null,"properties":{"OBJECTID":281,"GEOID":"4507","BASENAME":"7","CD119":"07"}},{"type":"Feature","id":282,"geometry":null,"properties":{"OBJECTID":282,"GEOID":"4801","BASENAME":"1","CD119":"01"}},{"type":"Feature","id":283,"geometry":null,"properties":{"OBJECTID":283,"GEOID":"5506","BASENAME":"6","CD119":"06"}},{"type":"Feature","id":284,"geometry":null,"properties":{"OBJECTID":284,"GEOID":"0405","BASENAME":"5","CD119":"05"}},{"type":"Feature","id":285,"geometry":null,"properties":{"OBJECTID":285,"GEOID":"3611","BASENAME":"11","CD119":"11"}},{"type":"Feature","id":286,"geometry":null,"properties":{"OBJECTID":286,"GEOID":"2804","BASENAME":"4","CD119":"04"}},{"type":"Feature","id":287,"geometry":null,"properties":{"OBJECTID":287,"GEOID":"1807","BASENAME":"7","CD119":"07"}},{"type":"Feature","id":288,"geometry":null,"properties":{"OBJECTID":288,"GEOID":"2612","BASENAME":"12","CD119":"12"}},{"type":"Feature","id":289,"geometry":null,"properties":{"OBJECTID":289,"GEOID":"3615","BASENAME":"15","CD119":"15"}},{"type":"Feature","id":290,"geometry":null,"properties":{"OBJECTID":290,"GEOID":"2707","BASENAME":"7","CD119":"07"}},{"type":"Feature","id":291,"geometry":null,"properties":{"OBJECTID":291,"GEOID":"1225","BASENAME":"25","CD119":"25"}},{"type":"Feature","id":292,"geometry":null,"properties":{"OBJECTID":292,"GEOID":"0901","BASENAME":"1","CD119":"01"}},{"type":"Feature","id":293,"geometry":null,"properties":{"OBJECTID":293,"GEOID":"1224","BASENAME":"24","CD119":"24"}},{"type":"Feature","id":294,"geometry":null,"properties":{"OBJECTID":294,"GEOID":"3906","BASENAME":"6","CD119":"06"}},{"type":"Feature","id":295,"geometry":null,"properties":{"OBJECTID":295,"GEOID":"5304","BASENAME":"4","CD119":"04"}},{"type":"Feature","id":296,"geometry":null,"properties":{"OBJECTID":296,"GEOID":"0647","BASENAME":"47","CD119":"47"}},{"type":"Feature","id":297,"geometry":null,"properties":{"OBJECTID":297,"GEOID":"2902","BASENAME":"2","CD119":"02"}},{"type":"Feature","id":298,"geometry":null,"properties":{"OBJECTID":298,"GEOID":"0619","BASENAME":"19","CD119":"19"}},{"type":"Feature","id":299,"geometry":null,"properties":{"OBJECTID":299,"GEOID":"3711","BASENAME":"11","CD119":"11"}},{"type":"Feature","id":300,"geometry":null,"properties":{"OBJECTID":300,"GEOID":"4202","BASENAME":"2","CD119":"02"}},{"type":"Feature","id":301,"geometry":null,"properties":{"OBJECTID":301,"GEOID":"0649","BASENAME":"49","CD119":"49"}},{"type":"Feature","id":302,"geometry":null,"properties":{"OBJECTID":302,"GEOID":"0648","BASENAME":"48","CD119":"48"}},{"type":"Feature","id":303,"geometry":null,"properties":{"OBJECTID":303,"GEOID":"0404","BASENAME":"4","CD119":"04"}},{"type":"Feature","id":304,"geometry":null,"properties":{"OBJECTID":304,"GEOID":"1214","BASENAME":"14","CD119":"14"}},{"type":"Feature","id":305,"geometry":null,"properties":{"OBJECTID":305,"GEOID":"0644","BASENAME":"44","CD119":"44"}},{"type":"Feature","id":306,"geometry":null,"properties":{"OBJECTID":306,"GEOID":"1227","BASENAME":"27","CD119":"27"}},{"type":"Feature","id":307,"geometry":null,"properties":{"OBJECTID":307,"GEOID":"0106","BASENAME":"6","CD119":"06"}},{"type":"Feature","id":308,"geometry":null,"properties":{"OBJECTID":308,"GEOID":"3626","BASENAME":"26","CD119":"26"}},{"type":"Feature","id":309,"geometry":null,"properties":{"OBJECTID":309,"GEOID":"3604","BASENAME":"4","CD119":"04"}},{"type":"Feature","id":310,"geometry":null,"properties":{"OBJECTID":310,"GEOID":"5504","BASENAME":"4","CD119":"04"}},{"type":"Feature","id":311,"geometry":null,"properties":{"OBJECTID":311,"GEOID":"3609","BASENAME":"9","CD119":"09"}},{"type":"Feature","id":312,"geometry":null,"properties":{"OBJECTID":312,"GEOID":"3612","BASENAME":"12","CD119":"12"}},{"type":"Feature","id":313,"geometry":null,"properties":{"OBJECTID":313,"GEOID":"1000","BASENAME":"Congressional District (at Large)","CD119":"00"}},{"type":"Feature","id":314,"geometry":null,"properties":{"OBJECTID":314,"GEOID":"1220","BASENAME":"20","CD119":"20"}},{"type":"Feature","id":315,"geometry":null,"properties":{"OBJECTID":315,"GEOID":"1313","BASENAME":"13","CD119":"13"}},{"type":"Feature","id":316,"geometry":null,"properties":{"OBJECTID":316,"GEOID":"3706","BASENAME":"6","CD119":"06"}},{"type":"Feature","id":317,"geometry":null,"properties":{"OBJECTID":317,"GEOID":"3702","BASENAME":"2","CD119":"02"}},{"type":"Feature","id":318,"geometry":null,"properties":{"OBJECTID":318,"GEOID":"0617","BASENAME":"17","CD119":"17"}},{"type":"Feature","id":319,"geometry":null,"properties":{"OBJECTID":319,"GEOID":"0640","BASENAME":"40","CD119":"40"}},{"type":"Feature","id":320,"geometry":null,"properties":{"OBJECTID":320,"GEOID":"0626","BASENAME":"26","CD119":"26"}},{"type":"Feature","id":321,"geometry":null,"properties":{"OBJECTID":321,"GEOID":"0802","BASENAME":"2","CD119":"02"}},{"type":"Feature","id":322,"geometry":null,"properties":{"OBJECTID":322,"GEOID":"2608","BASENAME":"8","CD119":"08"}},{"type":"Feature","id":323,"geometry":null,"properties":{"OBJECTID":323,"GEOID":"5507","BASENAME":"7","CD119":"07"}},{"type":"Feature","id":324,"geometry":null,"properties":{"OBJECTID":324,"GEOID":"2301","BASENAME":"1","CD119":"01"}},{"type":"Feature","id":325,"geometry":null,"properties":{"OBJECTID":325,"GEOID":"0101","BASENAME":"1","CD119":"01"}},{"type":"Feature","id":326,"geometry":null,"properties":{"OBJECTID":326,"GEOID":"2004","BASENAME":"4","CD119":"04"}},{"type":"Feature","id":327,"geometry":null,"properties":{"OBJECTID":327,"GEOID":"0806","BASENAME":"6","CD119":"06"}},{"type":"Feature","id":328,"geometry":null,"properties":{"OBJECTID":328,"GEOID":"1705","BASENAME":"5","CD119":"05"}},{"type":"Feature","id":329,"geometry":null,"properties":{"OBJECTID":329,"GEOID":"0503","BASENAME":"3","CD119":"03"}},{"type":"Feature","id":330,"geometry":null,"properties":{"OBJECTID":330,"GEOID":"3203","BASENAME":"3","CD119":"03"}},{"type":"Feature","id":331,"geometry":null,"properties":{"OBJECTID":331,"GEOID":"3602","BASENAME":"2","CD119":"02"}},{"type":"Feature","id":332,"geometry":null,"properties":{"OBJECTID":332,"GEOID":"4211","BASENAME":"11","CD119":"11"}},{"type":"Feature","id":333,"geometry":null,"properties":{"OBJECTID":333,"GEOID":"4829","BASENAME":"29","CD119":"29"}},{"type":"Feature","id":334,"geometry":null,"properties":{"OBJECTID":334,"GEOID":"6998","BASENAME":"Delegate District (at Large)","CD119":"98"}},{"type":"Feature","id":335,"geometry":null,"properties":{"OBJECTID":335,"GEOID":"3624","BASENAME":"24","CD119":"24"}},{"type":"Feature","id":336,"geometry":null,"properties":{"OBJECTID":336,"GEOID":"0904","BASENAME":"4","CD119":"04"}},{"type":"Feature","id":337,"geometry":null,"properties":{"OBJECTID":337,"GEOID":"4103","BASENAME":"3","CD119":"03"}},{"type":"Feature","id":338,"geometry":null,"properties":{"OBJECTID":338,"GEOID":"0805","BASENAME":"5","CD119":"05"}},{"type":"Feature","id":339,"geometry":null,"properties":{"OBJECTID":339,"GEOID":"1222","BASENAME":"22","CD119":"22"}},{"type":"Feature","id":340,"geometry":null,"properties":{"OBJECTID":340,"GEOID":"4814","BASENAME":"14","CD119":"14"}},{"type":"Feature","id":341,"geometry":null,"properties":{"OBJECTID":341,"GEOID":"2407","BASENAME":"7","CD119":"07"}},{"type":"Feature","id":342,"geometry":null,"properties":{"OBJECTID":342,"GEOID":"5503","BASENAME":"3","CD119":"03"}},{"type":"Feature","id":343,"geometry":null,"properties":{"OBJECTID":343,"GEOID":"0630","BASENAME":"30","CD119":"30"}},{"type":"Feature","id":344,"geometry":null,"properties":{"OBJECTID":344,"GEOID":"3905","BASENAME":"5","CD119":"05"}},{"type":"Feature","id":345,"geometry":null,"properties":{"OBJECTID":345,"GEOID":"1219","BASENAME":"19","CD119":"19"}},{"type":"Feature","id":346,"geometry":null,"properties":{"OBJECTID":346,"GEOID":"5309","BASENAME":"9","CD119":"09"}},{"type":"Feature","id":347,"geometry":null,"properties":{"OBJECTID":347,"GEOID":"6098","BASENAME":"Delegate District (at Large)","CD119":"98"}},{"type":"Feature","id":348,"geometry":null,"properties":{"OBJECTID":348,"GEOID":"3707","BASENAME":"7","CD119":"07"}},{"type":"Feature","id":349,"geometry":null,"properties":{"OBJECTID":349,"GEOID":"2501","BASENAME":"1","CD119":"01"}},{"type":"Feature","id":350,"geometry":null,"properties":{"OBJECTID":350,"GEOID":"3903","BASENAME":"3","CD119":"03"}},{"type":"Feature","id":351,"geometry":null,"properties":{"OBJECTID":351,"GEOID":"3904","BASENAME":"4","CD119":"04"}},{"type":"Feature","id":352,"geometry":null,"properties":{"OBJECTID":352,"GEOID":"4902","BASENAME":"2","CD119":"02"}},{"type":"Feature","id":353,"geometry":null,"properties":{"OBJECTID":353,"GEOID":"4708","BASENAME":"8","CD119":"08"}},{"type":"Feature","id":354,"geometry":null,"properties":{"OBJECTID":354,"GEOID":"4501","BASENAME":"1","CD119":"01"}},{"type":"Feature","id":355,"geometry":null,"properties":{"OBJECTID":355,"GEOID":"4506","BASENAME":"6","CD119":"06"}},{"type":"Feature","id":356,"geometry":null,"properties":{"OBJECTID":356,"GEOID":"2609","BASENAME":"9","CD119":"09"}},{"type":"Feature","id":357,"geometry":null,"properties":{"OBJECTID":357,"GEOID":"2601","BASENAME":"1","CD119":"01"}},{"type":"Feature","id":358,"geometry":null,"properties":{"OBJECTID":358,"GEOID":"2607","BASENAME":"7","CD119":"07"}},{"type":"Feature","id":359,"geometry":null,"properties":{"OBJECTID":359,"GEOID":"5310","BASENAME":"10","CD119":"10"}},{"type":"Feature","id":360,"geometry":null,"properties":{"OBJECTID":360,"GEOID":"2201","BASENAME":"1","CD119":"01"}},{"type":"Feature","id":361,"geometry":null,"properties":{"OBJECTID":361,"GEOID":"2611","BASENAME":"11","CD119":"11"}},{"type":"Feature","id":362,"geometry":null,"properties":{"OBJECTID":362,"GEOID":"4205","BASENAME":"5","CD119":"05"}},{"type":"Feature","id":363,"geometry":null,"properties":{"OBJECTID":363,"GEOID":"0407","BASENAME":"7","CD119":"07"}},{"type":"Feature","id":364,"geometry":null,"properties":{"OBJECTID":364,"GEOID":"3625","BASENAME":"25","CD119":"25"}},{"type":"Feature","id":365,"geometry":null,"properties":{"OBJECTID":365,"GEOID":"3613","BASENAME":"13","CD119":"13"}},{"type":"Feature","id":366,"geometry":null,"properties":{"OBJECTID":366,"GEOID":"1704","BASENAME":"4","CD119":"04"}},{"type":"Feature","id":367,"geometry":null,"properties":{"OBJECTID":367,"GEOID":"1212","BASENAME":"12","CD119":"12"}},{"type":"Feature","id":368,"geometry":null,"properties":{"OBJECTID":368,"GEOID":"3402","BASENAME":"2","CD119":"02"}},{"type":"Feature","id":369,"geometry":null,"properties":{"OBJECTID":369,"GEOID":"4904","BASENAME":"4","CD119":"04"}},{"type":"Feature","id":370,"geometry":null,"properties":{"OBJECTID":370,"GEOID":"2605","BASENAME":"5","CD119":"05"}},{"type":"Feature","id":371,"geometry":null,"properties":{"OBJECTID":371,"GEOID":"2908","BASENAME":"8","CD119":"08"}},{"type":"Feature","id":372,"geometry":null,"properties":{"OBJECTID":372,"GEOID":"4823","BASENAME":"23","CD119":"23"}},{"type":"Feature","id":373,"geometry":null,"properties":{"OBJECTID":373,"GEOID":"0615","BASENAME":"15","CD119":"15"}},{"type":"Feature","id":374,"geometry":null,"properties":{"OBJECTID":374,"GEOID":"1221","BASENAME":"21","CD119":"21"}},{"type":"Feature","id":375,"geometry":null,"properties":{"OBJECTID":375,"GEOID":"2906","BASENAME":"6","CD119":"06"}},{"type":"Feature","id":376,"geometry":null,"properties":{"OBJECTID":376,"GEOID":"3407","BASENAME":"7","CD119":"07"}},{"type":"Feature","id":377,"geometry":null,"properties":{"OBJECTID":377,"GEOID":"2003","BASENAME":"3","CD119":"03"}},{"type":"Feature","id":378,"geometry":null,"properties":{"OBJECTID":378,"GEOID":"4807","BASENAME":"7","CD119":"07"}},{"type":"Feature","id":379,"geometry":null,"properties":{"OBJECTID":379,"GEOID":"3616","BASENAME":"16","CD119":"16"}},{"type":"Feature","id":380,"geometry":null,"properties":{"OBJECTID":380,"GEOID":"3914","BASENAME":"14","CD119":"14"}},{"type":"Feature","id":381,"geometry":null,"properties":{"OBJECTID":381,"GEOID":"4504","BASENAME":"4","CD119":"04"}},{"type":"Feature","id":382,"geometry":null,"properties":{"OBJECTID":382,"GEOID":"0639","BASENAME":"39","CD119":"39"}},{"type":"Feature","id":383,"geometry":null,"properties":{"OBJECTID":383,"GEOID":"3713","BASENAME":"13","CD119":"13"}},{"type":"Feature","id":384,"geometry":null,"properties":{"OBJECTID":384,"GEOID":"3622","BASENAME":"22","CD119":"22"}},{"type":"Feature","id":385,"geometry":null,"properties":{"OBJECTID":385,"GEOID":"0903","BASENAME":"3","CD119":"03"}},{"type":"Feature","id":386,"geometry":null,"properties":{"OBJECTID":386,"GEOID":"3614","BASENAME":"14","CD119":"14"}},{"type":"Feature","id":387,"geometry":null,"properties":{"OBJECTID":387,"GEOID":"4827","BASENAME":"27","CD119":"27"}},{"type":"Feature","id":388,"geometry":null,"properties":{"OBJECTID":388,"GEOID":"0631","BASENAME":"31","CD119":"31"}},{"type":"Feature","id":389,"geometry":null,"properties":{"OBJECTID":389,"GEOID":"3915","BASENAME":"15","CD119":"15"}},{"type":"Feature","id":390,"geometry":null,"properties":{"OBJECTID":390,"GEOID":"2402","BASENAME":"2","CD119":"02"}},{"type":"Feature","id":391,"geometry":null,"properties":{"OBJECTID":391,"GEOID":"1601","BASENAME":"1","CD119":"01"}},{"type":"Feature","id":392,"geometry":null,"properties":{"OBJECTID":392,"GEOID":"0610","BASENAME":"10","CD119":"10"}},{"type":"Feature","id":393,"geometry":null,"properties":{"OBJECTID":393,"GEOID":"1218","BASENAME":"18","CD119":"18"}},{"type":"Feature","id":394,"geometry":null,"properties":{"OBJECTID":394,"GEOID":"1502","BASENAME":"2","CD119":"02"}},{"type":"Feature","id":395,"geometry":null,"properties":{"OBJECTID":395,"GEOID":"2901","BASENAME":"1","CD119":"01"}},{"type":"Feature","id":396,"geometry":null,"properties":{"OBJECTID":396,"GEOID":"4213","BASENAME":"13","CD119":"13"}},{"type":"Feature","id":397,"geometry":null,"properties":{"OBJECTID":397,"GEOID":"7898","BASENAME":"Delegate District (at Large)","CD119":"98"}},{"type":"Feature","id":398,"geometry":null,"properties":{"OBJECTID":398,"GEOID":"4828","BASENAME":"28","CD119":"28"}},{"type":"Feature","id":399,"geometry":null,"properties":{"OBJECTID":399,"GEOID":"1701","BASENAME":"1","CD119":"01"}},{"type":"Feature","id":400,"geometry":null,"properties":{"OBJECTID":400,"GEOID":"3710","BASENAME":"10","CD119":"10"}},{"type":"Feature","id":401,"geometry":null,"properties":{"OBJECTID":401,"GEOID":"4811","BASENAME":"11","CD119":"11"}},{"type":"Feature","id":402,"geometry":null,"properties":{"OBJECTID":402,"GEOID":"4818","BASENAME":"18","CD119":"18"}},{"type":"Feature","id":403,"geometry":null,"properties":{"OBJECTID":403,"GEOID":"1808","BASENAME":"8","CD119":"08"}},{"type":"Feature","id":404,"geometry":null,"properties":{"OBJECTID":404,"GEOID":"3901","BASENAME":"1","CD119":"01"}},{"type":"Feature","id":405,"geometry":null,"properties":{"OBJECTID":405,"GEOID":"4502","BASENAME":"2","CD119":"02"}},{"type":"Feature","id":406,"geometry":null,"properties":{"OBJECTID":406,"GEOID":"1305","BASENAME":"5","CD119":"05"}},{"type":"Feature","id":407,"geometry":null,"properties":{"OBJECTID":407,"GEOID":"0621","BASENAME":"21","CD119":"21"}},{"type":"Feature","id":408,"geometry":null,"properties":{"OBJECTID":408,"GEOID":"1202","BASENAME":"2","CD119":"02"}},{"type":"Feature","id":409,"geometry":null,"properties":{"OBJECTID":409,"GEOID":"2803","BASENAME":"3","CD119":"03"}},{"type":"Feature","id":410,"geometry":null,"properties":{"OBJECTID":410,"GEOID":"4201","BASENAME":"1","CD119":"01"}},{"type":"Feature","id":411,"geometry":null,"properties":{"OBJECTID":411,"GEOID":"2001","BASENAME":"1","CD119":"01"}},{"type":"Feature","id":412,"geometry":null,"properties":{"OBJECTID":412,"GEOID":"4810","BASENAME":"10","CD119":"10"}},{"type":"Feature","id":413,"geometry":null,"properties":{"OBJECTID":413,"GEOID":"3619","BASENAME":"19","CD119":"19"}},{"type":"Feature","id":414,"geometry":null,"properties":{"OBJECTID":414,"GEOID":"2507","BASENAME":"7","CD119":"07"}},{"type":"Feature","id":415,"geometry":null,"properties":{"OBJECTID":415,"GEOID":"4503","BASENAME":"3","CD119":"03"}},{"type":"Feature","id":416,"geometry":null,"properties":{"OBJECTID":416,"GEOID":"5306","BASENAME":"6","CD119":"06"}},{"type":"Feature","id":417,"geometry":null,"properties":{"OBJECTID":417,"GEOID":"4837","BASENAME":"37","CD119":"37"}},{"type":"Feature","id":418,"geometry":null,"properties":{"OBJECTID":418,"GEOID":"4834","BASENAME":"34","CD119":"34"}},{"type":"Feature","id":419,"geometry":null,"properties":{"OBJECTID":419,"GEOID":"2002","BASENAME":"2","CD119":"02"}},{"type":"Feature","id":420,"geometry":null,"properties":{"OBJECTID":420,"GEOID":"0628","BASENAME":"28","CD119":"28"}},{"type":"Feature","id":421,"geometry":null,"properties":{"OBJECTID":421,"GEOID":"1804","BASENAME":"4","CD119":"04"}},{"type":"Feature","id":422,"geometry":null,"properties":{"OBJECTID":422,"GEOID":"7298","BASENAME":"Resident Commissioner District (at Large)","CD119":"98"}},{"type":"Feature","id":423,"geometry":null,"properties":{"OBJECTID":423,"GEOID":"2504","BASENAME":"4","CD119":"04"}},{"type":"Feature","id":424,"geometry":null,"properties":{"OBJECTID":424,"GEOID":"5302","BASENAME":"2","CD119":"02"}},{"type":"Feature","id":425,"geometry":null,"properties":{"OBJECTID":425,"GEOID":"0403","BASENAME":"3","CD119":"03"}},{"type":"Feature","id":426,"geometry":null,"properties":{"OBJECTID":426,"GEOID":"2905","BASENAME":"5","CD119":"05"}},{"type":"Feature","id":427,"geometry":null,"properties":{"OBJECTID":427,"GEOID":"2206","BASENAME":"6","CD119":"06"}},{"type":"Feature","id":428,"geometry":null,"properties":{"OBJECTID":428,"GEOID":"0612","BASENAME":"12","CD119":"12"}},{"type":"Feature","id":429,"geometry":null,"properties":{"OBJECTID":429,"GEOID":"2106","BASENAME":"6","CD119":"06"}},{"type":"Feature","id":430,"geometry":null,"properties":{"OBJECTID":430,"GEOID":"1707","BASENAME":"7","CD119":"07"}},{"type":"Feature","id":431,"geometry":null,"properties":{"OBJECTID":431,"GEOID":"4401","BASENAME":"1","CD119":"01"}},{"type":"Feature","id":432,"geometry":null,"properties":{"OBJECTID":432,"GEOID":"0636","BASENAME":"36","CD119":"36"}},{"type":"Feature","id":433,"geometry":null,"properties":{"OBJECTID":433,"GEOID":"4836","BASENAME":"36","CD119":"36"}},{"type":"Feature","id":434,"geometry":null,"properties":{"OBJECTID":434,"GEOID":"3621","BASENAME":"21","CD119":"21"}},{"type":"Feature","id":435,"geometry":null,"properties":{"OBJECTID":435,"GEOID":"0624","BASENAME":"24","CD119":"24"}},{"type":"Feature","id":436,"geometry":null,"properties":{"OBJECTID":436,"GEOID":"1303","BASENAME":"3","CD119":"03"}},{"type":"Feature","id":437,"geometry":null,"properties":{"OBJECTID":437,"GEOID":"4903","BASENAME":"3","CD119":"03"}},{"type":"Feature","id":438,"geometry":null,"properties":{"OBJECTID":438,"GEOID":"2505","BASENAME":"5","CD119":"05"}},{"type":"Feature","id":439,"geometry":null,"properties":{"OBJECTID":439,"GEOID":"4704","BASENAME":"4","CD119":"04"}},{"type":"Feature","id":440,"geometry":null,"properties":{"OBJECTID":440,"GEOID":"1204","BASENAME":"4","CD119":"04"}},{"type":"Feature","id":441,"geometry":null,"properties":{"OBJECTID":441,"GEOID":"4105","BASENAME":"5","CD119":"05"}}]}